NORAD_CAT_ID,OBJECT_NAME,OBJECT_TYPE,EPOCH,MEAN_MOTION,ECCENTRICITY,INCLINATION,RA_OF_ASC_NODE,ARG_OF_PERICENTER,MEAN_ANOMALY,BSTAR,MEAN_MOTION_DOT,MEAN_MOTION_DDOT,TLE_LINE0,TLE_LINE1,TLE_LINE2,SEMIMAJOR_AXIS,PERIOD,APOGEE,PERIGEE,DECAYED
53977.0,STARLINK-5094,PAYLOAD,2024-05-11 20:53:18,15.0882548,0.0001657,53.2166,332.7037,100.464,259.6539,-1.2052e-05,-4.8e-06,0.0,0 STARLINK-5094,1 53977U 22125P   24132.87035151 -.00000480  00000-0 -12052-4 0  9993,2 53977  53.2166 332.7037 0001657 100.4640 259.6539 15.08825480 88797,6917.925,95.438,540.936,538.643,0.0
53977.0,STARLINK-5094,PAYLOAD,2024-05-12 12:47:15,15.08710686,0.0002743,53.2168,329.7353,91.1668,268.9639,-0.0032484,-0.0005144,0.0,0 STARLINK-5094,1 53977U 22125P   24133.53281619 -.00051440  00000-0 -32484-2 0  9990,2 53977  53.2168 329.7353 0002743  91.1668 268.9639 15.08710686 88895,6918.276,95.446,542.038,538.243,0.0
53977.0,STARLINK-5094,PAYLOAD,2024-05-12 20:44:11,15.08772637,0.0001462,53.2162,328.2424,100.9724,259.1432,0.001448,0.0002279,0.0,0 STARLINK-5094,1 53977U 22125P   24133.86402677  .00022790  00000-0  14480-2 0  9995,2 53977  53.2162 328.2424 0001462 100.9724 259.1432 15.08772637 88944,6918.086,95.442,540.963,538.94,0.0
53977.0,STARLINK-5094,PAYLOAD,2024-05-13 12:38:04,15.08844229,0.0001107,53.2174,325.2669,80.7013,279.4104,0.0013747,0.00021661,0.0,0 STARLINK-5094,1 53977U 22125P   24134.52643821  .00021661  00000-0  13747-2 0  9998,2 53977  53.2174 325.2669 0001107  80.7013 279.4104 15.08844229 89047,6917.867,95.437,540.498,538.967,0.0
53977.0,STARLINK-5094,PAYLOAD,2024-05-13 22:10:22,15.08867024,0.0001413,53.2168,323.4828,80.947,279.1682,0.001463,0.0002309,0.0,0 STARLINK-5094,1 53977U 22125P   24134.92387181  .00023090  00000-0  14630-2 0  9996,2 53977  53.2168 323.4828 0001413  80.9470 279.1682 15.08867024 89031,6917.798,95.436,540.64,538.685,0.0
53977.0,STARLINK-5094,PAYLOAD,2024-05-14 06:07:17,15.08882647,0.0001473,53.2169,321.9959,76.4828,283.6329,0.00097339,0.00015255,0.0,0 STARLINK-5094,1 53977U 22125P   24135.25506132  .00015255  00000-0  97339-3 0  9994,2 53977  53.2169 321.9959 0001473  76.4828 283.6329 15.08882647 89152,6917.75,95.435,540.634,538.596,0.0
53977.0,STARLINK-5094,PAYLOAD,2024-05-14 22:01:06,15.08917155,0.0001513,53.2162,319.0229,70.815,289.3006,0.0013423,0.00021184,0.0,0 STARLINK-5094,1 53977U 22125P   24135.91743269  .00021184  00000-0  13423-2 0  9990,2 53977  53.2162 319.0229 0001513  70.8150 289.3006 15.08917155 89185,6917.645,95.433,540.556,538.463,0.0
53977.0,STARLINK-5094,PAYLOAD,2024-05-15 12:19:33,15.08891102,0.0002717,53.2148,316.3431,84.002,276.1281,0.00058252,9.008e-05,0.0,0 STARLINK-5094,1 53977U 22125P   24136.51358073  .00009008  00000-0  58252-3 0  9993,2 53977  53.2148 316.3431 0002717  84.0020 276.1281 15.08891102 89344,6917.724,95.434,541.469,537.71,0.0
53977.0,STARLINK-5094,PAYLOAD,2024-05-15 18:41:06,15.08855053,0.0001601,53.2183,315.1553,58.9013,301.2136,-0.00052762,-8.679e-05,0.0,0 STARLINK-5094,1 53977U 22125P   24136.77854326 -.00008679  00000-0 -52762-3 0  9998,2 53977  53.2183 315.1553 0001601  58.9013 301.2136 15.08855053 89386,6917.834,95.437,540.807,538.592,0.0
53977.0,STARLINK-5094,PAYLOAD,2024-05-16 12:10:20,15.08857987,0.0001155,53.2192,311.8854,84.662,275.4504,0.0011412,0.0001793,0.0,0 STARLINK-5094,1 53977U 22125P   24137.50718486  .00017930  00000-0  11412-2 0  9990,2 53977  53.2192 311.8854 0001155  84.6620 275.4504 15.08857987 89421,6917.825,95.436,540.489,538.891,0.0
53977.0,STARLINK-5094,PAYLOAD,2024-05-16 18:31:53,15.08856526,0.0001014,53.2186,310.6973,71.6094,288.5008,0.0011436,0.00017967,0.0,0 STARLINK-5094,1 53977U 22125P   24137.77214494  .00017967  00000-0  11436-2 0  9995,2 53977  53.2186 310.6973 0001014  71.6094 288.5008 15.08856526 89464,6917.83,95.437,540.396,538.993,0.0
53977.0,STARLINK-5094,PAYLOAD,2024-05-17 04:04:11,15.08871132,0.0001799,53.22,308.9126,90.9755,269.1443,0.0010943,0.00017186,0.0,0 STARLINK-5094,1 53977U 22125P   24138.16957720  .00017186  00000-0  10943-2 0  9990,2 53977  53.2200 308.9126 0001799  90.9755 269.1443 15.08871132 89591,6917.785,95.436,540.895,538.406,0.0
53977.0,STARLINK-5094,PAYLOAD,2024-05-17 12:01:08,15.08808704,0.0002014,53.2191,307.4267,102.6717,257.45,-0.0010992,-0.00017725,0.0,0 STARLINK-5094,1 53977U 22125P   24138.50078862 -.00017725  00000-0 -10992-2 0  9994,2 53977  53.2191 307.4267 0002014 102.6717 257.4500 15.08808704 89645,6917.976,95.44,541.234,538.448,0.0
53977.0,STARLINK-5094,PAYLOAD,2024-05-17 18:22:41,15.08816344,8.64e-05,53.217,306.235,62.5332,297.5747,-0.00033369,-5.591e-05,0.0,0 STARLINK-5094,1 53977U 22125P   24138.76575407 -.00005591  00000-0 -33369-3 0  9991,2 53977  53.2170 306.2350 0000864  62.5332 297.5747 15.08816344 89614,6917.953,95.439,540.415,539.22,0.0
53977.0,STARLINK-5094,PAYLOAD,2024-05-18 10:16:32,15.08854133,0.0001507,53.2089,303.2587,84.1585,275.9579,0.0018233,0.0002886,0.0,0 STARLINK-5094,1 53977U 22125P   24139.42815740  .00028860  00000-0  18233-2 0  9996,2 53977  53.2089 303.2587 0001507  84.1585 275.9579 15.08854133 89786,6917.837,95.437,540.745,538.66,0.0
53977.0,STARLINK-5094,PAYLOAD,2024-05-18 18:13:27,15.08881988,0.0001267,53.2149,301.7744,78.7412,281.3722,0.002182,0.0003465,0.0,0 STARLINK-5094,1 53977U 22125P   24139.75935114  .00034650  00000-0  21820-2 0  9990,2 53977  53.2149 301.7744 0001267  78.7412 281.3722 15.08881988 89769,6917.752,95.435,540.494,538.741,0.0
53977.0,STARLINK-5094,PAYLOAD,2024-05-19 10:07:18,15.0884805,0.0003126,53.2134,298.8026,73.4012,286.7323,-0.00045524,-7.529e-05,0.0,0 STARLINK-5094,1 53977U 22125P   24140.42174284 -.00007529  00000-0 -45524-3 0  9994,2 53977  53.2134 298.8026 0003126  73.4012 286.7323 15.08848050 89866,6917.856,95.437,541.883,537.558,0.0
53977.0,STARLINK-5094,PAYLOAD,2024-05-19 19:39:38,15.08821363,0.0001687,53.2164,297.0175,59.0415,301.0742,0.0022851,0.00036248,0.0,0 STARLINK-5094,1 53977U 22125P   24140.81919147  .00036248  00000-0  22851-2 0  9997,2 53977  53.2164 297.0175 0001687  59.0415 301.0742 15.08821363 89990,6917.937,95.439,540.969,538.635,0.0
53977.0,STARLINK-5094,PAYLOAD,2024-05-20 14:44:16,15.08838499,0.0001166,53.2158,293.4452,82.132,277.9805,0.001158,0.00018189,0.0,0 STARLINK-5094,1 53977U 22125P   24141.61407619  .00018189  00000-0  11580-2 0  9993,2 53977  53.2158 293.4452 0001166  82.1320 277.9805 15.08838499 90042,6917.885,95.438,540.557,538.943,0.0
53977.0,STARLINK-5094,PAYLOAD,2024-05-20 19:30:25,15.0884324,0.0001429,53.2167,292.5535,68.8579,291.2565,0.00088653,0.00013851,0.0,0 STARLINK-5094,1 53977U 22125P   24141.81279669  .00013851  00000-0  88653-3 0  9994,2 53977  53.2167 292.5535 0001429  68.8579 291.2565 15.08843240 90146,6917.87,95.437,540.724,538.747,0.0
53977.0,STARLINK-5094,PAYLOAD,2024-05-21 09:48:53,15.08840023,0.0001246,53.2159,289.8807,85.3958,274.7176,0.00042942,6.553e-05,0.0,0 STARLINK-5094,1 53977U 22125P   24142.40895758  .00006553  00000-0  42942-3 0  9995,2 53977  53.2159 289.8807 0001246  85.3958 274.7176 15.08840023 90230,6917.88,95.438,540.607,538.883,0.0
53977.0,STARLINK-5094,PAYLOAD,2024-05-21 14:35:03,15.0883978,0.000157,53.2168,288.987,65.6983,294.4173,0.00036056,5.455e-05,0.0,0 STARLINK-5094,1 53977U 22125P   24142.60768069  .00005455  00000-0  36056-3 0  9990,2 53977  53.2168 288.9870 0001570  65.6983 294.4173 15.08839780 90198,6917.881,95.438,540.832,538.66,0.0
53977.0,STARLINK-5094,PAYLOAD,2024-05-21 16:10:26,15.08838774,0.0001561,53.2171,288.6899,65.1126,295.0028,0.00030308,4.539e-05,0.0,0 STARLINK-5094,1 53977U 22125P   24142.67392094  .00004539  00000-0  30308-3 0  9994,2 53977  53.2171 288.6899 0001561  65.1126 295.0028 15.08838774 90204,6917.884,95.438,540.829,538.669,0.0
53977.0,STARLINK-5094,PAYLOAD,2024-05-22 19:11:59,15.08847209,0.0001277,53.2168,283.633,85.7047,274.4091,0.00027414,4.079e-05,0.0,0 STARLINK-5094,1 53977U 22125P   24143.79999651  .00004079  00000-0  27414-3 0  9993,2 53977  53.2168 283.6330 0001277  85.7047 274.4091 15.08847209 90449,6917.858,95.437,540.607,538.84,0.0
53977.0,STARLINK-5094,PAYLOAD,2024-05-23 12:41:14,15.088401,0.0001205,53.2171,280.3606,91.0203,269.0928,6.2009e-05,6.99e-06,0.0,0 STARLINK-5094,1 53977U 22125P   24144.52863832  .00000699  00000-0  62009-4 0  9990,2 53977  53.2171 280.3606 0001205  91.0203 269.0928 15.08840100 90552,6917.88,95.438,540.579,538.911,0.0
53977.0,STARLINK-5094,PAYLOAD,2024-05-23 14:16:37,15.08839398,0.0001139,53.2167,280.0632,92.7196,267.3927,5.6917e-05,6.18e-06,0.0,0 STARLINK-5094,1 53977U 22125P   24144.59487885  .00000618  00000-0  56917-4 0  9999,2 53977  53.2167 280.0632 0001139  92.7196 267.3927 15.08839398 90498,6917.882,95.438,540.535,538.959,0.0
53977.0,STARLINK-5094,PAYLOAD,2024-05-23 19:02:47,15.08837717,0.0001242,53.2174,279.1728,96.8828,263.2306,2.5731e-05,1.22e-06,0.0,0 STARLINK-5094,1 53977U 22125P   24144.79359958  .00000122  00000-0  25731-4 0  9990,2 53977  53.2174 279.1728 0001242  96.8828 263.2306 15.08837717 90526,6917.887,95.438,540.612,538.893,0.0
53977.0,STARLINK-5094,PAYLOAD,2024-05-24 14:07:24,15.0883655,0.0001172,53.2162,275.6065,102.0898,258.0225,0.00010578,1.396e-05,0.0,0 STARLINK-5094,1 53977U 22125P   24145.58847967  .00001396  00000-0  10578-3 0  9996,2 53977  53.2162 275.6065 0001172 102.0898 258.0225 15.08836550 90646,6917.891,95.438,540.567,538.945,0.0
53977.0,STARLINK-5094,PAYLOAD,2024-05-24 15:42:47,15.08839127,0.0001274,53.2168,275.3088,108.028,252.0851,0.00013078,1.794e-05,0.0,0 STARLINK-5094,1 53977U 22125P   24145.65471825  .00001794  00000-0  13078-3 0  9990,2 53977  53.2168 275.3088 0001274 108.0280 252.0851 15.08839127 90729,6917.883,95.438,540.629,538.867,0.0
53977.0,STARLINK-5094,PAYLOAD,2024-05-25 01:15:07,15.08819165,8.9e-05,53.2158,273.5269,84.6983,275.4111,-0.00023213,-3.978e-05,0.0,0 STARLINK-5094,1 53977U 22125P   24146.05216436 -.00003978  00000-0 -23213-3 0  9990,2 53977  53.2158 273.5269 0000890  84.6983 275.4111 15.08819165 90785,6917.944,95.439,540.425,539.193,0.0
